0 DELTA 1 DEB
1 21329U 75052AX  13282.94019345  .00004988  00000-0  31771-2 0  1786
2 21329 099.7161 279.3244 0253204 095.5358 327.5194 13.89573516116955
0 DELTA 1 DEB
1 21329U 75052AX  13286.97329778  .00004338  00000-0  27662-2 0  1803
2 21329 099.7152 283.5362 0253157 084.8837 343.1582 13.89604301117518
0 DELTA 1 DEB
1 21329U 75052AX  13288.98756770  .00006812  00000-0  43234-2 0  1815
2 21329 099.7146 285.6398 0253196 079.5528 339.7616 13.89625863117799
0 DELTA 1 DEB
1 21329U 75052AX  13291.51852633  .00006107  00000-0  38779-2 0  1829
2 21329 099.7150 288.2825 0253165 072.8548 041.3746 13.89653985118148
0 DELTA 1 DEB
1 21329U 75052AX  13293.82347488  .00005951  00000-0  37789-2 0  1839
2 21329 099.7156 290.6896 0253081 066.7431 052.5476 13.89674437118463
0 DELTA 1 DEB
1 21329U 75052AX  13295.97123546  .00006945  00000-0  44031-2 0  1847
2 21329 099.7160 292.9326 0252991 061.0624 357.5052 13.89698556118761
